{
  "type": "FeatureCollection",
  "features": [
    {
      "type": "Feature",
      "properties": {
        "name": "Suelo de Aptitud Forestal y Protección Celendín (MIDAGRI CUM)",
        "entidad": "Capacidad_Uso_Mayor_Suelos",
        "id": "Capacidad_Uso_Mayor_Suelos_1"
      },
      "geometry": {
        "type": "Polygon",
        "coordinates": [
          [
            [
              -78.16,
              -6.86
            ],
            [
              -78.11,
              -6.86
            ],
            [
              -78.11,
              -6.91
            ],
            [
              -78.16,
              -6.91
            ],
            [
              -78.16,
              -6.86
            ]
          ]
        ]
      }
    }
  ]
}