{
  "type": "FeatureCollection",
  "features": [
    {
      "type": "Feature",
      "properties": {
        "name": "Sitio Arqueológico Las Palmeras Celendín (MINCUL CIRA)",
        "entidad": "Catastro_Monumentos_CIRA",
        "id": "Catastro_Monumentos_CIRA_1"
      },
      "geometry": {
        "type": "Polygon",
        "coordinates": [
          [
            [
              -78.13,
              -6.83
            ],
            [
              -78.11,
              -6.83
            ],
            [
              -78.11,
              -6.85
            ],
            [
              -78.13,
              -6.85
            ],
            [
              -78.13,
              -6.83
            ]
          ]
        ]
      }
    }
  ]
}