{
  "type": "FeatureCollection",
  "features": [
    {
      "type": "Feature",
      "properties": {
        "name": "Ecosistema Frágil Jalca de Celendín (SERFOR)",
        "entidad": "Ecosistemas_Fragiles_Serfor",
        "id": "Ecosistemas_Fragiles_Serfor_1"
      },
      "geometry": {
        "type": "Polygon",
        "coordinates": [
          [
            [
              -78.18,
              -6.92
            ],
            [
              -78.12,
              -6.92
            ],
            [
              -78.12,
              -6.98
            ],
            [
              -78.18,
              -6.98
            ],
            [
              -78.18,
              -6.92
            ]
          ]
        ]
      }
    }
  ]
}