{"type":"FeatureCollection","features":[{"type":"Feature","properties":{"Name":"Sector Av\u00edcola / Porcino Valle Celend\u00edn - Sucre","description":"<b>Entidad:</b> SENASA / MINAM<br/><b>Tipo:</b> Porcina y Av\u00edcola Semi-tecnificada<br/><b>Radio Exclusi\u00f3n:</b> 5.0 km<br/><b>Norma:</b> D.S. 014-2017-MINAM"},"geometry":{"type":"Polygon","coordinates":[[[-78.06976,-6.892],[-78.07063,-6.88324],[-78.0732,-6.87481],[-78.07738,-6.86705],[-78.08301,-6.86024],[-78.08987,-6.85465],[-78.09769,-6.8505],[-78.10617,-6.84795],[-78.115,-6.84708],[-78.12383,-6.84795],[-78.13231,-6.8505],[-78.14014,-6.85465],[-78.14699,-6.86024],[-78.15262,-6.86705],[-78.1568,-6.87481],[-78.15937,-6.88324],[-78.16024,-6.892],[-78.15937,-6.90076],[-78.1568,-6.90919],[-78.15262,-6.91695],[-78.14699,-6.92376],[-78.14014,-6.92935],[-78.13231,-6.9335],[-78.12383,-6.93605],[-78.115,-6.93692],[-78.10617,-6.93605],[-78.09769,-6.9335],[-78.08987,-6.92935],[-78.08301,-6.92376],[-78.07738,-6.91695],[-78.0732,-6.90919],[-78.07063,-6.90076],[-78.06976,-6.892]]]}},{"type":"Feature","properties":{"Name":"Sector Av\u00edcola Llacanora - Jes\u00fas (Cajamarca)","description":"<b>Entidad:</b> SENASA / MINAM<br/><b>Tipo:</b> Granjas Av\u00edcolas de Postura y Engorde<br/><b>Radio Exclusi\u00f3n:</b> 8.0 km<br/><b>Norma:</b> D.S. 014-2017-MINAM"},"geometry":{"type":"Polygon","coordinates":[[[-78.35756,-7.21],[-78.35895,-7.19598],[-78.36308,-7.1825],[-78.36977,-7.17007],[-78.37878,-7.15918],[-78.38976,-7.15025],[-78.40228,-7.1436],[-78.41587,-7.13952],[-78.43,-7.13814],[-78.44413,-7.13952],[-78.45772,-7.1436],[-78.47024,-7.15025],[-78.48122,-7.15918],[-78.49023,-7.17007],[-78.49692,-7.1825],[-78.50105,-7.19598],[-78.50244,-7.21],[-78.50105,-7.22402],[-78.49692,-7.2375],[-78.49023,-7.24993],[-78.48122,-7.26082],[-78.47024,-7.26975],[-78.45772,-7.27639],[-78.44413,-7.28048],[-78.43,-7.28186],[-78.41587,-7.28048],[-78.40228,-7.27639],[-78.38976,-7.26975],[-78.37878,-7.26082],[-78.36977,-7.24993],[-78.36308,-7.2375],[-78.35895,-7.22402],[-78.35756,-7.21]]]}},{"type":"Feature","properties":{"Name":"Zona Agropecuaria Yura - Uchumayo (Arequipa)","description":"<b>Entidad:</b> SENASA / MINAM<br/><b>Tipo:</b> Granjas Porcinas y Av\u00edcolas Tecnificadas<br/><b>Radio Exclusi\u00f3n:</b> 8.0 km<br/><b>Norma:</b> D.S. 014-2017-MINAM"},"geometry":{"type":"Polygon","coordinates":[[[-71.5451,-16.37],[-71.54654,-16.35598],[-71.5508,-16.3425],[-71.55772,-16.33007],[-71.56704,-16.31918],[-71.57839,-16.31025],[-71.59134,-16.30361],[-71.60539,-16.29952],[-71.62,-16.29813],[-71.63461,-16.29952],[-71.64866,-16.30361],[-71.66161,-16.31025],[-71.67296,-16.31918],[-71.68228,-16.33007],[-71.6892,-16.3425],[-71.69346,-16.35598],[-71.6949,-16.37],[-71.69346,-16.38402],[-71.6892,-16.3975],[-71.68228,-16.40993],[-71.67296,-16.42082],[-71.66161,-16.42975],[-71.64866,-16.4364],[-71.63461,-16.44048],[-71.62,-16.44186],[-71.60539,-16.44048],[-71.59134,-16.4364],[-71.57839,-16.42975],[-71.56704,-16.42082],[-71.55772,-16.40993],[-71.5508,-16.3975],[-71.54654,-16.38402],[-71.5451,-16.37]]]}},{"type":"Feature","properties":{"Name":"Corredor Av\u00edcola Vir\u00fa - Chao (La Libertad)","description":"<b>Entidad:</b> SENASA / MINAM<br/><b>Tipo:</b> Planteles Av\u00edcolas de Gran Escala SENASA<br/><b>Radio Exclusi\u00f3n:</b> 10.0 km<br/><b>Norma:</b> D.S. 014-2017-MINAM"},"geometry":{"type":"Polygon","coordinates":[[[-78.62918,-8.45],[-78.63093,-8.43248],[-78.6361,-8.41562],[-78.64449,-8.40009],[-78.65578,-8.38648],[-78.66954,-8.37531],[-78.68525,-8.36701],[-78.70228,-8.3619],[-78.72,-8.36017],[-78.73772,-8.3619],[-78.75475,-8.36701],[-78.77045,-8.37531],[-78.78422,-8.38648],[-78.79551,-8.40009],[-78.8039,-8.41562],[-78.80907,-8.43248],[-78.81082,-8.45],[-78.80907,-8.46753],[-78.8039,-8.48438],[-78.79551,-8.49991],[-78.78422,-8.51352],[-78.77045,-8.52469],[-78.75475,-8.53299],[-78.73772,-8.5381],[-78.72,-8.53983],[-78.70228,-8.5381],[-78.68525,-8.53299],[-78.66954,-8.52469],[-78.65578,-8.51352],[-78.64449,-8.49991],[-78.6361,-8.48438],[-78.63093,-8.46753],[-78.62918,-8.45]]]}},{"type":"Feature","properties":{"Name":"Zona Porcina Lur\u00edn - Chilca (Lima)","description":"<b>Entidad:</b> SENASA / MINAM<br/><b>Tipo:</b> Granjas Porcinas Tecnificadas<br/><b>Radio Exclusi\u00f3n:</b> 10.0 km<br/><b>Norma:</b> D.S. 014-2017-MINAM"},"geometry":{"type":"Polygon","coordinates":[[[-76.75805,-12.31],[-76.75982,-12.29247],[-76.76505,-12.27562],[-76.77355,-12.26009],[-76.78499,-12.24648],[-76.79892,-12.23531],[-76.81481,-12.22701],[-76.83206,-12.22189],[-76.85,-12.22017],[-76.86794,-12.22189],[-76.88519,-12.22701],[-76.90108,-12.23531],[-76.91501,-12.24648],[-76.92645,-12.26009],[-76.93495,-12.27562],[-76.94018,-12.29247],[-76.94195,-12.31],[-76.94018,-12.32752],[-76.93495,-12.34438],[-76.92645,-12.35991],[-76.91501,-12.37352],[-76.90108,-12.38469],[-76.88519,-12.39299],[-76.86794,-12.3981],[-76.85,-12.39983],[-76.83206,-12.3981],[-76.81481,-12.39299],[-76.79892,-12.38469],[-76.78499,-12.37352],[-76.77355,-12.35991],[-76.76505,-12.34438],[-76.75982,-12.32752],[-76.75805,-12.31]]]}},{"type":"Feature","properties":{"Name":"Sector Pecuario San Jer\u00f3nimo - Saylla (Cusco)","description":"<b>Entidad:</b> SENASA / MINAM<br/><b>Tipo:</b> Granjas Av\u00edcolas y Porcinas Tradicionales<br/><b>Radio Exclusi\u00f3n:</b> 5.0 km<br/><b>Norma:</b> D.S. 014-2017-MINAM"},"geometry":{"type":"Polygon","coordinates":[[[-71.8338,-13.56],[-71.83468,-13.55124],[-71.83731,-13.54281],[-71.84158,-13.53505],[-71.84733,-13.52824],[-71.85433,-13.52265],[-71.86232,-13.5185],[-71.87099,-13.51595],[-71.88,-13.51508],[-71.88901,-13.51595],[-71.89768,-13.5185],[-71.90567,-13.52265],[-71.91267,-13.52824],[-71.91842,-13.53505],[-71.92269,-13.54281],[-71.92532,-13.55124],[-71.9262,-13.56],[-71.92532,-13.56876],[-71.92269,-13.57719],[-71.91842,-13.58495],[-71.91267,-13.59176],[-71.90567,-13.59735],[-71.89768,-13.6015],[-71.88901,-13.60405],[-71.88,-13.60492],[-71.87099,-13.60405],[-71.86232,-13.6015],[-71.85433,-13.59735],[-71.84733,-13.59176],[-71.84158,-13.58495],[-71.83731,-13.57719],[-71.83468,-13.56876],[-71.8338,-13.56]]]}},{"type":"Feature","properties":{"Name":"Zona Av\u00edcola Medio Piura (Piura)","description":"<b>Entidad:</b> SENASA / MINAM<br/><b>Tipo:</b> Planteles Av\u00edcolas Comerciales<br/><b>Radio Exclusi\u00f3n:</b> 7.0 km<br/><b>Norma:</b> D.S. 014-2017-MINAM"},"geometry":{"type":"Polygon","coordinates":[[[-80.51686,-5.15],[-80.51808,-5.13773],[-80.52167,-5.12594],[-80.5275,-5.11507],[-80.53536,-5.10554],[-80.54492,-5.09772],[-80.55584,-5.0919],[-80.56768,-5.08833],[-80.58,-5.08712],[-80.59232,-5.08833],[-80.60416,-5.0919],[-80.61508,-5.09772],[-80.62464,-5.10554],[-80.6325,-5.11507],[-80.63833,-5.12594],[-80.64192,-5.13773],[-80.64314,-5.15],[-80.64192,-5.16227],[-80.63833,-5.17406],[-80.6325,-5.18494],[-80.62464,-5.19446],[-80.61508,-5.20228],[-80.60416,-5.2081],[-80.59232,-5.21167],[-80.58,-5.21288],[-80.56768,-5.21167],[-80.55584,-5.2081],[-80.54492,-5.20228],[-80.53536,-5.19446],[-80.5275,-5.18494],[-80.52167,-5.17406],[-80.51808,-5.16227],[-80.51686,-5.15]]]}},{"type":"Feature","properties":{"Name":"Sector Av\u00edcola Valle del Mantaro - Concepci\u00f3n (Jun\u00edn)","description":"<b>Entidad:</b> SENASA / MINAM<br/><b>Tipo:</b> Granjas Av\u00edcolas de Postura<br/><b>Radio Exclusi\u00f3n:</b> 6.0 km<br/><b>Norma:</b> D.S. 014-2017-MINAM"},"geometry":{"type":"Polygon","coordinates":[[[-75.25491,-11.92],[-75.25597,-11.90949],[-75.25911,-11.89937],[-75.2642,-11.89006],[-75.27105,-11.88189],[-75.2794,-11.87519],[-75.28892,-11.8702],[-75.29925,-11.86714],[-75.31,-11.8661],[-75.32075,-11.86714],[-75.33108,-11.8702],[-75.3406,-11.87519],[-75.34895,-11.88189],[-75.3558,-11.89006],[-75.36089,-11.89937],[-75.36403,-11.90949],[-75.36509,-11.92],[-75.36403,-11.93051],[-75.36089,-11.94063],[-75.3558,-11.94994],[-75.34895,-11.95811],[-75.3406,-11.96481],[-75.33108,-11.9698],[-75.32075,-11.97286],[-75.31,-11.9739],[-75.29925,-11.97286],[-75.28892,-11.9698],[-75.2794,-11.96481],[-75.27105,-11.95811],[-75.2642,-11.94994],[-75.25911,-11.94063],[-75.25597,-11.93051],[-75.25491,-11.92]]]}}]}