{
  "type": "FeatureCollection",
  "features": [
    {
      "type": "Feature",
      "properties": {
        "name": "Buffer 13km Aeródromo Celendín (MTC / DGAC)",
        "entidad": "Radio_Seguridad_Aviaria_MTC",
        "id": "Radio_Seguridad_Aviaria_MTC_1"
      },
      "geometry": {
        "type": "Polygon",
        "coordinates": [
          [
            [
              -78.26,
              -6.74
            ],
            [
              -78.03,
              -6.74
            ],
            [
              -78.03,
              -6.99
            ],
            [
              -78.26,
              -6.99
            ],
            [
              -78.26,
              -6.74
            ]
          ]
        ]
      }
    }
  ]
}